ONEWEB-0171             
1 48070U 21025AE  25074.96240097 -.00000278  00000+0 -79747-3 0  9999
2 48070  87.8922  51.3213 0001964  81.4405 278.6947 13.13471744193465
ONEWEB-0172             
1 48071U 21025AF  25074.94208685 -.00000058  00000+0 -19274-3 0  9990
2 48071  87.8923  51.2918 0001918  77.8691 282.2653 13.13468963194356
ONEWEB-0174             
1 48072U 21025AG  25074.92348657  .00000385  00000+0  10192-2 0  9993
2 48072  87.8922  51.3092 0001787  85.1941 274.9392 13.13471146193673
ONEWEB-0175             
1 48073U 21025AH  25074.95395341 -.00000204  00000+0 -59355-3 0  9996
2 48073  87.8917  51.2764 0002220  79.9791 280.1589 13.13466695193333
ONEWEB-0177             
1 48074U 21025AJ  25074.96578126 -.00000423  00000+0 -11932-2 0  9993
2 48074  87.8916  51.2858 0001674  78.4253 281.7064 13.13472189193527
ONEWEB-0178             
1 48075U 21025AK  25074.90837944  .00000204  00000+0  52472-3 0  9994
2 48075  87.8924  51.3342 0001777  78.6500 281.4829 13.13473817193566
ONEWEB-0108             
1 48076U 21025AL  25074.94376371 -.00000122  00000+0 -36767-3 0  9991
2 48076  87.8917  51.2856 0001924  91.8997 268.2353 13.13468868193496
ONEWEB-0169             
1 48077U 21025AM  25074.89976563  .00000086  00000+0  20107-3 0  9993
2 48077  87.8920  51.3118 0001923  91.6516 268.4834 13.13466914192144
